NORAD_CAT_ID,OBJECT_NAME,OBJECT_TYPE,EPOCH,MEAN_MOTION,ECCENTRICITY,INCLINATION,RA_OF_ASC_NODE,ARG_OF_PERICENTER,MEAN_ANOMALY,BSTAR,MEAN_MOTION_DOT,MEAN_MOTION_DDOT,TLE_LINE0,TLE_LINE1,TLE_LINE2,SEMIMAJOR_AXIS,PERIOD,APOGEE,PERIGEE,DECAYED
53718.0,STARLINK-4695,PAYLOAD,2023-01-01 05:10:28,15.08833125,0.0002206,53.2183,76.7857,43.9908,316.1259,6.2432e-05,7.05e-06,0.0,0 STARLINK-4695,1 53718U 22107U   23001.21560962  .00000705  00000-0  62432-4 0  9996,2 53718  53.2183  76.7857 0002206  43.9908 316.1259 15.08833125 18317,6917.901,95.438,541.2919999999998,538.24,0.0
53718.0,STARLINK-4695,PAYLOAD,2023-01-01 11:32:00,15.08840971,0.0002109999999999,53.2187,75.5969,42.4072,317.7083,4.6273e-05,4.48e-06,0.0,0 STARLINK-4695,1 53718U 22107U   23001.48056636  .00000448  00000-0  46273-4 0  9992,2 53718  53.2187  75.5969 0002110  42.4072 317.7083 15.08840971 18805,6917.877,95.437,541.202,538.283,0.0
53718.0,STARLINK-4695,PAYLOAD,2023-01-01 16:18:09,15.08847773,0.0002068,53.2194,74.7038,43.7976,316.318,7.825100000000001e-05,9.58e-06,0.0,0 STARLINK-4695,1 53718U 22107U   23001.67928041  .00000958  00000-0  78251-4 0  9998,2 53718  53.2194  74.7038 0002068  43.7976 316.3180 15.08847773 18833,6917.857,95.437,541.1519999999998,538.2909999999998,0.0
53718.0,STARLINK-4695,PAYLOAD,2023-01-02 05:01:15,15.08837924,0.0002003,53.2178,72.3242,56.4035,303.7148,-7.2969e-05,-1.449e-05,0.0,0 STARLINK-4695,1 53718U 22107U   23002.20921154 -.00001449  00000-0 -72969-4 0  9994,2 53718  53.2178  72.3242 0002003  56.4035 303.7148 15.08837924 18462,6917.887,95.438,541.137,538.366,0.0
53718.0,STARLINK-4695,PAYLOAD,2023-01-02 12:58:10,15.08846937,0.0002068,53.2182,70.8395,48.5177,311.5992,-4.3267e-06,-3.57e-06,0.0,0 STARLINK-4695,1 53718U 22107U   23002.54040353 -.00000357  00000-0 -43267-5 0  9991,2 53718  53.2182  70.8395 0002068  48.5177 311.5992 15.08846937 18513,6917.859,95.437,541.155,538.294,0.0
53718.0,STARLINK-4695,PAYLOAD,2023-01-02 14:33:34,15.08846043,0.0002105,53.2192,70.5413,47.3617,312.7552,-2.5493e-05,-6.94e-06,0.0,0 STARLINK-4695,1 53718U 22107U   23002.60664464 -.00000694  00000-0 -25493-4 0  9997,2 53718  53.2192  70.5413 0002105  47.3617 312.7552 15.08846043 18973,6917.861999999999,95.437,541.183,538.271,0.0
53718.0,STARLINK-4695,PAYLOAD,2023-01-02 20:55:07,15.08841781,0.0002024,53.2191,69.3547,46.6677,313.4484,-6.6618e-05,-1.348e-05,0.0,0 STARLINK-4695,1 53718U 22107U   23002.87160899 -.00001348  00000-0 -66618-4 0  9990,2 53718  53.2191  69.3547 0002024  46.6677 313.4484 15.08841781 18565,6917.875,95.437,541.14,538.34,0.0
53718.0,STARLINK-4695,PAYLOAD,2023-01-03 04:52:03,15.08830452,0.0001882,53.2193,67.8648,52.4176,307.6987,6.092600000000001e-05,6.81e-06,0.0,0 STARLINK-4695,1 53718U 22107U   23003.20281409  .00000681  00000-0  60926-4 0  9992,2 53718  53.2193  67.8648 0001882  52.4176 307.6987 15.08830452 18614,6917.91,95.438,541.077,538.4730000000002,0.0
53718.0,STARLINK-4695,PAYLOAD,2023-01-03 12:48:58,15.08840319,0.0002045999999999,53.2198,66.3791,49.3123,310.8046,6.0236e-05,6.71e-06,0.0,0 STARLINK-4695,1 53718U 22107U   23003.53400910  .00000671  00000-0  60236-4 0  9991,2 53718  53.2198  66.3791 0002046  49.3123 310.8046 15.08840319 19113,6917.879,95.438,541.16,538.3290000000002,0.0
53718.0,STARLINK-4695,PAYLOAD,2023-01-03 14:24:21,15.08840864,0.0002041999999999,53.2196,66.0816,49.9352,310.1819,6.8161e-05,7.97e-06,0.0,0 STARLINK-4695,1 53718U 22107U   23003.60024887  .00000797  00000-0  68161-4 0  9998,2 53718  53.2196  66.0816 0002042  49.9352 310.1819 15.08840864 18678,6917.878000000002,95.438,541.155,538.33,0.0
53718.0,STARLINK-4695,PAYLOAD,2023-01-04 03:07:27,15.08829817,0.0001964,53.2189,63.7032,53.3616,306.7556,0.00011163,1.488e-05,0.0,0 STARLINK-4695,1 53718U 22107U   23004.13017642  .00001488  00000-0  11163-3 0  9995,2 53718  53.2189  63.7032 0001964  53.3616 306.7556 15.08829817 18751,6917.9119999999975,95.438,541.135,538.418,0.0
53718.0,STARLINK-4695,PAYLOAD,2023-01-04 11:04:22,15.08846851,0.0001979,53.2195,62.2165,53.4089,306.7085,9.9922e-05,1.303e-05,0.0,0 STARLINK-4695,1 53718U 22107U   23004.46136721  .00001303  00000-0  99922-4 0  9997,2 53718  53.2195  62.2165 0001979  53.4089 306.7085 15.08846851 18800,6917.859,95.437,541.0930000000002,538.355,0.0
53718.0,STARLINK-4695,PAYLOAD,2023-01-04 20:36:40,15.08849647,0.0001935,53.2194,60.432,58.4938,301.6243,9.8471e-05,1.28e-05,0.0,0 STARLINK-4695,1 53718U 22107U   23004.85880414  .00001280  00000-0  98471-4 0  9997,2 53718  53.2194  60.4320 0001935  58.4938 301.6243 15.08849647 19315,6917.851,95.437,541.055,538.377,0.0
53718.0,STARLINK-4695,PAYLOAD,2023-01-05 12:30:31,15.08852597,0.0001963,53.2186,57.4597,62.7577,297.3615,0.00018864,2.716e-05,0.0,0 STARLINK-4695,1 53718U 22107U   23005.52120052  .00002716  00000-0  18864-3 0  9999,2 53718  53.2186  57.4597 0001963  62.7577 297.3615 15.08852597 18968,6917.842,95.437,541.065,538.349,0.0
53718.0,STARLINK-4695,PAYLOAD,2023-01-06 12:21:19,15.088381699999998,0.0002316,53.2197,52.9992,72.0854,288.0391,-3.2051e-05,-7.98e-06,0.0,0 STARLINK-4695,1 53718U 22107U   23006.51481027 -.00000798  00000-0 -32051-4 0  9996,2 53718  53.2197  52.9992 0002316  72.0854 288.0391 15.08838170 19111,6917.886,95.438,541.3530000000002,538.149,0.0
53718.0,STARLINK-4695,PAYLOAD,2023-01-07 05:50:34,15.08830337,0.000199,53.2175,49.7277,88.848,271.274,-7.7399e-05,-1.519e-05,0.0,0 STARLINK-4695,1 53718U 22107U   23007.24345553 -.00001519  00000-0 -77399-4 0  9996,2 53718  53.2175  49.7277 0001990  88.8480 271.2740 15.08830337 19674,6917.91,95.438,541.1519999999998,538.398,0.0
53718.0,STARLINK-4695,PAYLOAD,2023-01-07 13:47:30,15.0883737,0.0001369,53.2182,48.2407,75.1153,284.9991,0.00018507,2.658e-05,0.0,0 STARLINK-4695,1 53718U 22107U   23007.57465336  .00002658  00000-0  18507-3 0  9992,2 53718  53.2182  48.2407 0001369  75.1153 284.9991 15.08837370 19276,6917.888000000001,95.438,540.7,538.806,0.0
53718.0,STARLINK-4695,PAYLOAD,2023-01-07 20:09:02,15.08838322,0.0001463,53.2181,47.0514,77.5401,282.5755,0.00023918,3.52e-05,0.0,0 STARLINK-4695,1 53718U 22107U   23007.83961681  .00003520  00000-0  23918-3 0  9996,2 53718  53.2181  47.0514 0001463  77.5401 282.5755 15.08838322 19762,6917.886,95.438,540.763,538.738,0.0
53718.0,STARLINK-4695,PAYLOAD,2023-01-08 12:02:53,15.08864895,0.0001482,53.2179,44.0777,79.2492,280.8667,0.0010826,0.00016995,0.0,0 STARLINK-4695,1 53718U 22107U   23008.50201314  .00016995  00000-0  10826-2 0  9994,2 53718  53.2179  44.0777 0001482  79.2492 280.8667 15.08864895 19865,6917.804,95.436,540.695,538.644,0.0
53718.0,STARLINK-4695,PAYLOAD,2023-01-08 13:38:16,15.08868033,0.0001488,53.2179,43.7803,79.3883,280.7276,0.0011167999999999,0.00017544,0.0,0 STARLINK-4695,1 53718U 22107U   23008.56825181  .00017544  00000-0  11168-2 0  9995,2 53718  53.2179  43.7803 0001488  79.3883 280.7276 15.08868033 19427,6917.795,95.436,540.689,538.63,0.0
53718.0,STARLINK-4695,PAYLOAD,2023-01-09 02:21:22,15.08850566,0.0001423,53.2179,41.4013,89.1344,270.9811,0.00027125,4.033e-05,0.0,0 STARLINK-4695,1 53718U 22107U   23009.09817264  .00004033  00000-0  27125-3 0  9997,2 53718  53.2179  41.4013 0001423  89.1344 270.9811 15.08850566 19502,6917.848000000001,95.437,540.698,538.729,0.0
53718.0,STARLINK-4695,PAYLOAD,2023-01-09 10:18:17,15.08853793,0.0001537,53.2181,39.9144,94.4515,265.6653,0.00040567,6.177e-05,0.0,0 STARLINK-4695,1 53718U 22107U   23009.42937036  .00006177  00000-0  40567-3 0  9990,2 53718  53.2181  39.9144 0001537  94.4515 265.6653 15.08853793 20004,6917.838000000002,95.437,540.7669999999998,538.64,0.0
53718.0,STARLINK-4695,PAYLOAD,2023-01-10 08:33:41,15.08843302,0.0001173,53.2183,35.7516,87.18799999999997,272.9246,0.00088291,0.00013793,0.0,0 STARLINK-4695,1 53718U 22107U   23010.35673539  .00013793  00000-0  88291-3 0  9997,2 53718  53.2183  35.7516 0001173  87.1880 272.9246 15.08843302 19690,6917.87,95.437,540.547,538.924,0.0
53718.0,STARLINK-4695,PAYLOAD,2023-01-10 18:06:00,15.08842488,0.0001016,53.2183,33.9674,83.3233,276.7875,0.00054469,8.392e-05,0.0,0 STARLINK-4695,1 53718U 22107U   23010.75417590  .00008392  00000-0  54469-3 0  9993,2 53718  53.2183  33.9674 0001016  83.3233 276.7875 15.08842488 19752,6917.873000000001,95.437,540.441,539.035,0.0
53718.0,STARLINK-4695,PAYLOAD,2023-01-11 08:24:28,15.08847781,0.0001647,53.2193,31.2922,103.3656,256.752,0.00034736,5.246e-05,0.0,0 STARLINK-4695,1 53718U 22107U   23011.35033464  .00005246  00000-0  34736-3 0  9994,2 53718  53.2193  31.2922 0001647 103.3656 256.7520 15.08847781 20299,6917.857,95.437,540.861,538.582,0.0
53718.0,STARLINK-4695,PAYLOAD,2023-01-11 17:56:47,15.08846032,0.0001200999999999,53.2186,29.5076,88.1057,272.0073,0.00025375,3.754e-05,0.0,0 STARLINK-4695,1 53718U 22107U   23011.74777420  .00003754  00000-0  25375-3 0  9995,2 53718  53.2186  29.5076 0001201  88.1057 272.0073 15.08846032 19900,6917.861999999999,95.437,540.558,538.896,0.0
53718.0,STARLINK-4695,PAYLOAD,2023-01-12 01:53:43,15.08834058,0.0001226,53.2184,28.021,88.7536,271.3597,-1.1026e-05,-4.63e-06,0.0,0 STARLINK-4695,1 53718U 22107U   23012.07897920 -.00000463  00000-0 -11026-4 0  9995,2 53718  53.2184  28.0210 0001226  88.7536 271.3597 15.08834058 19950,6917.899,95.438,540.612,538.915,0.0
53718.0,STARLINK-4695,PAYLOAD,2023-01-12 17:47:34,15.08842248,0.0001301,53.2181,25.0473,90.4765,269.6376,0.00015836,2.233e-05,0.0,0 STARLINK-4695,1 53718U 22107U   23012.74137680  .00002233  00000-0  15836-3 0  9996,2 53718  53.2181  25.0473 0001301  90.4765 269.6376 15.08842248 20501,6917.874,95.437,540.639,538.839,0.0
53718.0,STARLINK-4695,PAYLOAD,2023-01-13 00:09:07,15.08843132,0.0001364,53.2185,23.8585,93.4528,266.66200000000003,0.00018391,2.64e-05,0.0,0 STARLINK-4695,1 53718U 22107U   23013.00633776  .00002640  00000-0  18391-3 0  9994,2 53718  53.2185  23.8585 0001364  93.4528 266.6620 15.08843132 20090,6917.871,95.437,540.679,538.7919999999998,0.0
